<?xml version="1.0" encoding="UTF-8"?>
<kml xmlns="http://www.opengis.net/kml/2.2">
  <Document>
    <name>여수 BPA 사무실</name>
    <Style id="icon-1538-0F9D58-normal">
      <IconStyle>
        <color>ff589d0f</color>
        <scale>1</scale>
        <Icon>
          <href>https://www.gstatic.com/mapspro/images/stock/503-wht-blank_maps.png</href>
        </Icon>
      </IconStyle>
      <LabelStyle>
        <scale>0</scale>
      </LabelStyle>
    </Style>
    <Style id="icon-1538-0F9D58-highlight">
      <IconStyle>
        <color>ff589d0f</color>
        <scale>1</scale>
        <Icon>
          <href>https://www.gstatic.com/mapspro/images/stock/503-wht-blank_maps.png</href>
        </Icon>
      </IconStyle>
      <LabelStyle>
        <scale>1</scale>
      </LabelStyle>
    </Style>
    <StyleMap id="icon-1538-0F9D58">
      <Pair>
        <key>normal</key>
        <styleUrl>#icon-1538-0F9D58-normal</styleUrl>
      </Pair>
      <Pair>
        <key>highlight</key>
        <styleUrl>#icon-1538-0F9D58-highlight</styleUrl>
      </Pair>
    </StyleMap>
    <Style id="icon-1538-0F9D58-nodesc-normal">
      <IconStyle>
        <color>ff589d0f</color>
        <scale>1</scale>
        <Icon>
          <href>https://www.gstatic.com/mapspro/images/stock/503-wht-blank_maps.png</href>
        </Icon>
      </IconStyle>
      <LabelStyle>
        <scale>0</scale>
      </LabelStyle>
      <BalloonStyle>
        <text><![CDATA[<h3>$[name]</h3>]]></text>
      </BalloonStyle>
    </Style>
    <Style id="icon-1538-0F9D58-nodesc-highlight">
      <IconStyle>
        <color>ff589d0f</color>
        <scale>1</scale>
        <Icon>
          <href>https://www.gstatic.com/mapspro/images/stock/503-wht-blank_maps.png</href>
        </Icon>
      </IconStyle>
      <LabelStyle>
        <scale>1</scale>
      </LabelStyle>
      <BalloonStyle>
        <text><![CDATA[<h3>$[name]</h3>]]></text>
      </BalloonStyle>
    </Style>
    <StyleMap id="icon-1538-0F9D58-nodesc">
      <Pair>
        <key>normal</key>
        <styleUrl>#icon-1538-0F9D58-nodesc-normal</styleUrl>
      </Pair>
      <Pair>
        <key>highlight</key>
        <styleUrl>#icon-1538-0F9D58-nodesc-highlight</styleUrl>
      </Pair>
    </StyleMap>
    <Style id="icon-1538-BDBDBD-nodesc-normal">
      <IconStyle>
        <color>ffbdbdbd</color>
        <scale>1</scale>
        <Icon>
          <href>https://www.gstatic.com/mapspro/images/stock/503-wht-blank_maps.png</href>
        </Icon>
      </IconStyle>
      <LabelStyle>
        <scale>0</scale>
      </LabelStyle>
      <BalloonStyle>
        <text><![CDATA[<h3>$[name]</h3>]]></text>
      </BalloonStyle>
    </Style>
    <Style id="icon-1538-BDBDBD-nodesc-highlight">
      <IconStyle>
        <color>ffbdbdbd</color>
        <scale>1</scale>
        <Icon>
          <href>https://www.gstatic.com/mapspro/images/stock/503-wht-blank_maps.png</href>
        </Icon>
      </IconStyle>
      <LabelStyle>
        <scale>1</scale>
      </LabelStyle>
      <BalloonStyle>
        <text><![CDATA[<h3>$[name]</h3>]]></text>
      </BalloonStyle>
    </Style>
    <StyleMap id="icon-1538-BDBDBD-nodesc">
      <Pair>
        <key>normal</key>
        <styleUrl>#icon-1538-BDBDBD-nodesc-normal</styleUrl>
      </Pair>
      <Pair>
        <key>highlight</key>
        <styleUrl>#icon-1538-BDBDBD-nodesc-highlight</styleUrl>
      </Pair>
    </StyleMap>
    <Style id="icon-1603-FFEA00-nodesc-normal">
      <IconStyle>
        <color>ff00eaff</color>
        <scale>1</scale>
        <Icon>
          <href>https://www.gstatic.com/mapspro/images/stock/503-wht-blank_maps.png</href>
        </Icon>
      </IconStyle>
      <LabelStyle>
        <scale>0</scale>
      </LabelStyle>
      <BalloonStyle>
        <text><![CDATA[<h3>$[name]</h3>]]></text>
      </BalloonStyle>
    </Style>
    <Style id="icon-1603-FFEA00-nodesc-highlight">
      <IconStyle>
        <color>ff00eaff</color>
        <scale>1</scale>
        <Icon>
          <href>https://www.gstatic.com/mapspro/images/stock/503-wht-blank_maps.png</href>
        </Icon>
      </IconStyle>
      <LabelStyle>
        <scale>1</scale>
      </LabelStyle>
      <BalloonStyle>
        <text><![CDATA[<h3>$[name]</h3>]]></text>
      </BalloonStyle>
    </Style>
    <StyleMap id="icon-1603-FFEA00-nodesc">
      <Pair>
        <key>normal</key>
        <styleUrl>#icon-1603-FFEA00-nodesc-normal</styleUrl>
      </Pair>
      <Pair>
        <key>highlight</key>
        <styleUrl>#icon-1603-FFEA00-nodesc-highlight</styleUrl>
      </Pair>
    </StyleMap>
    <Style id="icon-1644-FFEA00-nodesc-normal">
      <IconStyle>
        <color>ff00eaff</color>
        <scale>1</scale>
        <Icon>
          <href>https://www.gstatic.com/mapspro/images/stock/503-wht-blank_maps.png</href>
        </Icon>
      </IconStyle>
      <LabelStyle>
        <scale>0</scale>
      </LabelStyle>
      <BalloonStyle>
        <text><![CDATA[<h3>$[name]</h3>]]></text>
      </BalloonStyle>
    </Style>
    <Style id="icon-1644-FFEA00-nodesc-highlight">
      <IconStyle>
        <color>ff00eaff</color>
        <scale>1</scale>
        <Icon>
          <href>https://www.gstatic.com/mapspro/images/stock/503-wht-blank_maps.png</href>
        </Icon>
      </IconStyle>
      <LabelStyle>
        <scale>1</scale>
      </LabelStyle>
      <BalloonStyle>
        <text><![CDATA[<h3>$[name]</h3>]]></text>
      </BalloonStyle>
    </Style>
    <StyleMap id="icon-1644-FFEA00-nodesc">
      <Pair>
        <key>normal</key>
        <styleUrl>#icon-1644-FFEA00-nodesc-normal</styleUrl>
      </Pair>
      <Pair>
        <key>highlight</key>
        <styleUrl>#icon-1644-FFEA00-nodesc-highlight</styleUrl>
      </Pair>
    </StyleMap>
    <Style id="line-FF5252-6813-nodesc-normal">
      <LineStyle>
        <color>ff5252ff</color>
        <width>6.813</width>
      </LineStyle>
      <BalloonStyle>
        <text><![CDATA[<h3>$[name]</h3>]]></text>
      </BalloonStyle>
    </Style>
    <Style id="line-FF5252-6813-nodesc-highlight">
      <LineStyle>
        <color>ff5252ff</color>
        <width>10.2195</width>
      </LineStyle>
      <BalloonStyle>
        <text><![CDATA[<h3>$[name]</h3>]]></text>
      </BalloonStyle>
    </Style>
    <StyleMap id="line-FF5252-6813-nodesc">
      <Pair>
        <key>normal</key>
        <styleUrl>#line-FF5252-6813-nodesc-normal</styleUrl>
      </Pair>
      <Pair>
        <key>highlight</key>
        <styleUrl>#line-FF5252-6813-nodesc-highlight</styleUrl>
      </Pair>
    </StyleMap>
    <Placemark>
      <name>이동경로</name>
      <styleUrl>#line-FF5252-6813-nodesc</styleUrl>
      <LineString>
        <tessellate>1</tessellate>
        <coordinates>
          127.6802519,34.8370668,0
          127.6790504,34.8381148,0
          127.6812391,34.8397174,0
          127.6821349,34.8388896,0
          127.6817567,34.8386035,0
        </coordinates>
      </LineString>
    </Placemark>
    <Placemark>
      <name>게이트 지나 직진</name>
      <styleUrl>#icon-1603-FFEA00-nodesc</styleUrl>
      <Point>
        <coordinates>
          127.6802519,34.8370668,0
        </coordinates>
      </Point>
    </Placemark>
    <Placemark>
      <name>사일로 지나 우회전</name>
      <styleUrl>#icon-1538-0F9D58-nodesc</styleUrl>
      <Point>
        <coordinates>
          127.6790504,34.8381148,0
        </coordinates>
      </Point>
    </Placemark>
    <Placemark>
      <name>점 4</name>
      <description>좌측 탱크, 우측 사일로 보이면 우회전</description>
      <styleUrl>#icon-1538-0F9D58</styleUrl>
      <Point>
        <coordinates>
          127.6812391,34.8397174,0
        </coordinates>
      </Point>
    </Placemark>
    <Placemark>
      <name>도로 끝 지점까지 직진</name>
      <styleUrl>#icon-1538-BDBDBD-nodesc</styleUrl>
      <Point>
        <coordinates>
          127.6818882,34.8391141,0
        </coordinates>
      </Point>
    </Placemark>
    <Placemark>
      <name>도착</name>
      <styleUrl>#icon-1644-FFEA00-nodesc</styleUrl>
      <Point>
        <coordinates>
          127.6817647,34.8386342,0
        </coordinates>
      </Point>
    </Placemark>
  </Document>
</kml>
